[
    {
        "Altitude(m)": 706579.305219711,
        "Argument of Periapsis(deg)": 0.011390121186627068,
        "Eccentricity": 0.0,
        "Inclination(deg)": 45.0,
        "Latitude(deg)": 41.87571606859537,
        "Longitude(deg)": -63.85778474076828,
        "Mean Anomaly(deg)": -250.2849833525192,
        "RAAN(deg)": 279.98924805854176,
        "Satellite Name": "Constellation 1 1238",
        "Satellite Number": 1238,
        "Semi-Major Axis(m)": 7083131.272910544,
        "Time(s)": 190
    },
    {
        "Altitude(m)": 706575.0305042829,
        "Argument of Periapsis(deg)": 0.011450069192872472,
        "Eccentricity": 0.0,
        "Inclination(deg)": 45.0,
        "Latitude(deg)": 41.856208430915785,
        "Longitude(deg)": -63.78483591868496,
        "Mean Anomaly(deg)": -250.2242822122693,
        "RAAN(deg)": 279.9891914693762,
        "Satellite Name": "Constellation 1 1238",
        "Satellite Number": 1238,
        "Semi-Major Axis(m)": 7083131.272910544,
        "Time(s)": 191
    },
    {
        "Altitude(m)": 706570.7454996655,
        "Argument of Periapsis(deg)": 0.01151001719911788,
        "Eccentricity": 0.0,
        "Inclination(deg)": 45.0,
        "Latitude(deg)": 41.8366490779677,
        "Longitude(deg)": -63.71193394389942,
        "Mean Anomaly(deg)": -250.1635810720194,
        "RAAN(deg)": 279.98913488021066,
        "Satellite Name": "Constellation 1 1238",
        "Satellite Number": 1238,
        "Semi-Major Axis(m)": 7083131.272910544,
        "Time(s)": 192
    },
    {
        "Altitude(m)": 706566.4502314979,
        "Argument of Periapsis(deg)": 0.011569965205363285,
        "Eccentricity": 0.0,
        "Inclination(deg)": 45.0,
        "Latitude(deg)": 41.81703807600146,
        "Longitude(deg)": -63.639079047527325,
        "Mean Anomaly(deg)": -250.10287993176948,
        "RAAN(deg)": 279.9890782910451,
        "Satellite Name": "Constellation 1 1238",
        "Satellite Number": 1238,
        "Semi-Major Axis(m)": 7083131.272910544,
        "Time(s)": 193
    },
    {
        "Altitude(m)": 706562.1447254925,
        "Argument of Periapsis(deg)": 0.01162991321160869,
        "Eccentricity": 0.0,
        "Inclination(deg)": 45.0,
        "Latitude(deg)": 41.797375491338045,
        "Longitude(deg)": -63.56627095584999,
        "Mean Anomaly(deg)": -250.04217879151958,
        "RAAN(deg)": 279.98902170187955,
        "Satellite Name": "Constellation 1 1238",
        "Satellite Number": 1238,
        "Semi-Major Axis(m)": 7083131.272910544,
        "Time(s)": 194
    },
    {
        "Altitude(m)": 706557.8290074221,
        "Argument of Periapsis(deg)": 0.011689861217854095,
        "Eccentricity": 0.0,
        "Inclination(deg)": 45.0,
        "Latitude(deg)": 41.777661390367605,
        "Longitude(deg)": -63.493509898895084,
        "Mean Anomaly(deg)": -249.98147765126967,
        "RAAN(deg)": 279.9889651127139,
        "Satellite Name": "Constellation 1 1238",
        "Satellite Number": 1238,
        "Semi-Major Axis(m)": 7083131.272910544,
        "Time(s)": 195
    },
    {
        "Altitude(m)": 706553.5031031264,
        "Argument of Periapsis(deg)": 0.0117498092240995,
        "Eccentricity": 0.0,
        "Inclination(deg)": 45.0,
        "Latitude(deg)": 41.757895839549015,
        "Longitude(deg)": -63.42079593805035,
        "Mean Anomaly(deg)": -249.92077651101982,
        "RAAN(deg)": 279.98890852354833,
        "Satellite Name": "Constellation 1 1238",
        "Satellite Number": 1238,
        "Semi-Major Axis(m)": 7083131.272910544,
        "Time(s)": 196
    },
    {
        "Altitude(m)": 706549.1670385101,
        "Argument of Periapsis(deg)": 0.011809757230344905,
        "Eccentricity": 0.0,
        "Inclination(deg)": 45.0,
        "Latitude(deg)": 41.73807890540897,
        "Longitude(deg)": -63.348129134161205,
        "Mean Anomaly(deg)": -249.86007537076986,
        "RAAN(deg)": 279.9888519343828,
        "Satellite Name": "Constellation 1 1238",
        "Satellite Number": 1238,
        "Semi-Major Axis(m)": 7083131.272910544,
        "Time(s)": 197
    },
    {
        "Altitude(m)": 706544.8208395407,
        "Argument of Periapsis(deg)": 0.011869705236590313,
        "Eccentricity": 0.0,
        "Inclination(deg)": 45.0,
        "Latitude(deg)": 41.71821065454111,
        "Longitude(deg)": -63.27550954753165,
        "Mean Anomaly(deg)": -249.79937423052002,
        "RAAN(deg)": 279.9887953452172,
        "Satellite Name": "Constellation 1 1238",
        "Satellite Number": 1238,
        "Semi-Major Axis(m)": 7083131.272910544,
        "Time(s)": 198
    },
    {
        "Altitude(m)": 706540.4645322557,
        "Argument of Periapsis(deg)": 0.011929653242835719,
        "Eccentricity": 0.0,
        "Inclination(deg)": 45.0,
        "Latitude(deg)": 41.69829115360533,
        "Longitude(deg)": -63.202937237924836,
        "Mean Anomaly(deg)": -249.7386730902701,
        "RAAN(deg)": 279.98873875605165,
        "Satellite Name": "Constellation 1 1238",
        "Satellite Number": 1238,
        "Semi-Major Axis(m)": 7083131.272910544,
        "Time(s)": 199
    }
]